STARLINK-31159          
1 58740U 24005N   26068.46422473 -.00000317  00000+0 -21620-5 0  9997
2 58740  42.9962 220.6332 0000922 252.9268 107.1482 15.26737472120508
FLOCK 4G-23             
1 62647U 25009AQ  26068.71663397  .00012440  00000+0  46816-3 0  9993
2 62647  97.3979 150.9478 0000905   7.2707 352.8545 15.27262579 63728
